[
    {
        "Altitude(m)": 622205.8512924536,
        "Argument of Periapsis(deg)": 0.0,
        "Eccentricity": 0.0,
        "Inclination(deg)": 60.0,
        "Latitude(deg)": -52.16239070798775,
        "Longitude(deg)": 162.70028704425658,
        "Mean Anomaly(deg)": 245.4545,
        "RAAN(deg)": 35.0,
        "Satellite Name": "Test1 169",
        "Satellite Number": 169,
        "Semi-Major Axis(m)": 6980739.136638005,
        "Time(s)": 0
    },
    {
        "Altitude(m)": 622344.7583005449,
        "Argument of Periapsis(deg)": 0.00010418945913296404,
        "Eccentricity": 0.0,
        "Inclination(deg)": 60.0,
        "Latitude(deg)": -52.51997145252031,
        "Longitude(deg)": 163.4814972336986,
        "Mean Anomaly(deg)": 246.07460614546184,
        "RAAN(deg)": 34.99957995086025,
        "Satellite Name": "Test1 169",
        "Satellite Number": 169,
        "Semi-Major Axis(m)": 6980739.136638005,
        "Time(s)": 10
    }
]